<?xml version="1.0" encoding="UTF-8"?>
<ndm xmlns:xsi="http://www.w3.org/2001/XMLSchema-instance" xsi:noNamespaceSchemaLocation="https://sanaregistry.org/r/ndmxml_unqualified/ndmxml-2.0.0-master-2.0.xsd">
<omm id="CCSDS_OMM_VERS" version="2.0">
<header><CREATION_DATE/><ORIGINATOR/></header><body><segment><metadata><OBJECT_NAME>GLOBALSTAR M023</OBJECT_NAME><OBJECT_ID>1999-004A</OBJECT_ID><CENTER_NAME>EARTH</CENTER_NAME><REF_FRAME>TEME</REF_FRAME><TIME_SYSTEM>UTC</TIME_SYSTEM><MEAN_ELEMENT_THEORY>SGP4</MEAN_ELEMENT_THEORY></metadata><data><meanElements><EPOCH>2025-02-26T21:47:15.736128</EPOCH><MEAN_MOTION>12.62496236</MEAN_MOTION><ECCENTRICITY>.000973</ECCENTRICITY><INCLINATION>52.0125</INCLINATION><RA_OF_ASC_NODE>29.2438</RA_OF_ASC_NODE><ARG_OF_PERICENTER>243.7228</ARG_OF_PERICENTER><MEAN_ANOMALY>142.8025</MEAN_ANOMALY></meanElements><tleParameters><EPHEMERIS_TYPE>0</EPHEMERIS_TYPE><CLASSIFICATION_TYPE>U</CLASSIFICATION_TYPE><NORAD_CAT_ID>25621</NORAD_CAT_ID><ELEMENT_SET_NO>999</ELEMENT_SET_NO><REV_AT_EPOCH>20180</REV_AT_EPOCH><BSTAR>.28742E-3</BSTAR><MEAN_MOTION_DOT>-.52E-6</MEAN_MOTION_DOT><MEAN_MOTION_DDOT>0</MEAN_MOTION_DDOT></tleParameters></data></segment></body></omm>
<omm id="CCSDS_OMM_VERS" version="2.0">
<header><CREATION_DATE/><ORIGINATOR/></header><body><segment><metadata><OBJECT_NAME>GLOBALSTAR M040</OBJECT_NAME><OBJECT_ID>1999-004B</OBJECT_ID><CENTER_NAME>EARTH</CENTER_NAME><REF_FRAME>TEME</REF_FRAME><TIME_SYSTEM>UTC</TIME_SYSTEM><MEAN_ELEMENT_THEORY>SGP4</MEAN_ELEMENT_THEORY></metadata><data><meanElements><EPOCH>2025-02-27T02:08:27.755232</EPOCH><MEAN_MOTION>12.62003059</MEAN_MOTION><ECCENTRICITY>.0000943</ECCENTRICITY><INCLINATION>51.9933</INCLINATION><RA_OF_ASC_NODE>32.6812</RA_OF_ASC_NODE><ARG_OF_PERICENTER>135.1216</ARG_OF_PERICENTER><MEAN_ANOMALY>304.3698</MEAN_ANOMALY></meanElements><tleParameters><EPHEMERIS_TYPE>0</EPHEMERIS_TYPE><CLASSIFICATION_TYPE>U</CLASSIFICATION_TYPE><NORAD_CAT_ID>25622</NORAD_CAT_ID><ELEMENT_SET_NO>999</ELEMENT_SET_NO><REV_AT_EPOCH>20165</REV_AT_EPOCH><BSTAR>.29652E-3</BSTAR><MEAN_MOTION_DOT>-.51E-6</MEAN_MOTION_DOT><MEAN_MOTION_DDOT>0</MEAN_MOTION_DDOT></tleParameters></data></segment></body></omm>
<omm id="CCSDS_OMM_VERS" version="2.0">
<header><CREATION_DATE/><ORIGINATOR/></header><body><segment><metadata><OBJECT_NAME>GLOBALSTAR M036</OBJECT_NAME><OBJECT_ID>1999-004C</OBJECT_ID><CENTER_NAME>EARTH</CENTER_NAME><REF_FRAME>TEME</REF_FRAME><TIME_SYSTEM>UTC</TIME_SYSTEM><MEAN_ELEMENT_THEORY>SGP4</MEAN_ELEMENT_THEORY></metadata><data><meanElements><EPOCH>2025-02-26T19:12:29.771712</EPOCH><MEAN_MOTION>11.86590910</MEAN_MOTION><ECCENTRICITY>.0011327</ECCENTRICITY><INCLINATION>51.9960</INCLINATION><RA_OF_ASC_NODE>171.2758</RA_OF_ASC_NODE><ARG_OF_PERICENTER>198.4905</ARG_OF_PERICENTER><MEAN_ANOMALY>327.6817</MEAN_ANOMALY></meanElements><tleParameters><EPHEMERIS_TYPE>0</EPHEMERIS_TYPE><CLASSIFICATION_TYPE>U</CLASSIFICATION_TYPE><NORAD_CAT_ID>25623</NORAD_CAT_ID><ELEMENT_SET_NO>999</ELEMENT_SET_NO><REV_AT_EPOCH>16587</REV_AT_EPOCH><BSTAR>-.68801E-3</BSTAR><MEAN_MOTION_DOT>-.13E-5</MEAN_MOTION_DOT><MEAN_MOTION_DDOT>0</MEAN_MOTION_DDOT></tleParameters></data></segment></body></omm>
<omm id="CCSDS_OMM_VERS" version="2.0">
<header><CREATION_DATE/><ORIGINATOR/></header><body><segment><metadata><OBJECT_NAME>GLOBALSTAR M038</OBJECT_NAME><OBJECT_ID>1999-004D</OBJECT_ID><CENTER_NAME>EARTH</CENTER_NAME><REF_FRAME>TEME</REF_FRAME><TIME_SYSTEM>UTC</TIME_SYSTEM><MEAN_ELEMENT_THEORY>SGP4</MEAN_ELEMENT_THEORY></metadata><data><meanElements><EPOCH>2025-02-26T21:08:23.344800</EPOCH><MEAN_MOTION>12.32521173</MEAN_MOTION><ECCENTRICITY>.0001754</ECCENTRICITY><INCLINATION>51.9992</INCLINATION><RA_OF_ASC_NODE>29.2390</RA_OF_ASC_NODE><ARG_OF_PERICENTER>175.1077</ARG_OF_PERICENTER><MEAN_ANOMALY>221.9148</MEAN_ANOMALY></meanElements><tleParameters><EPHEMERIS_TYPE>0</EPHEMERIS_TYPE><CLASSIFICATION_TYPE>U</CLASSIFICATION_TYPE><NORAD_CAT_ID>25624</NORAD_CAT_ID><ELEMENT_SET_NO>999</ELEMENT_SET_NO><REV_AT_EPOCH>18877</REV_AT_EPOCH><BSTAR>.20297E-3</BSTAR><MEAN_MOTION_DOT>-.7E-6</MEAN_MOTION_DOT><MEAN_MOTION_DDOT>0</MEAN_MOTION_DDOT></tleParameters></data></segment></body></omm>
<omm id="CCSDS_OMM_VERS" version="2.0">
<header><CREATION_DATE/><ORIGINATOR/></header><body><segment><metadata><OBJECT_NAME>GLOBALSTAR M022</OBJECT_NAME><OBJECT_ID>1999-012A</OBJECT_ID><CENTER_NAME>EARTH</CENTER_NAME><REF_FRAME>TEME</REF_FRAME><TIME_SYSTEM>UTC</TIME_SYSTEM><MEAN_ELEMENT_THEORY>SGP4</MEAN_ELEMENT_THEORY></metadata><data><meanElements><EPOCH>2025-02-26T20:42:04.299264</EPOCH><MEAN_MOTION>12.02496675</MEAN_MOTION><ECCENTRICITY>.0001754</ECCENTRICITY><INCLINATION>52.0016</INCLINATION><RA_OF_ASC_NODE>230.8147</RA_OF_ASC_NODE><ARG_OF_PERICENTER>331.1623</ARG_OF_PERICENTER><MEAN_ANOMALY>126.9417</MEAN_ANOMALY></meanElements><tleParameters><EPHEMERIS_TYPE>0</EPHEMERIS_TYPE><CLASSIFICATION_TYPE>U</CLASSIFICATION_TYPE><NORAD_CAT_ID>25649</NORAD_CAT_ID><ELEMENT_SET_NO>999</ELEMENT_SET_NO><REV_AT_EPOCH>16310</REV_AT_EPOCH><BSTAR>.32532E-3</BSTAR><MEAN_MOTION_DOT>-.6E-6</MEAN_MOTION_DOT><MEAN_MOTION_DDOT>0</MEAN_MOTION_DDOT></tleParameters></data></segment></body></omm>
<omm id="CCSDS_OMM_VERS" version="2.0">
<header><CREATION_DATE/><ORIGINATOR/></header><body><segment><metadata><OBJECT_NAME>GLOBALSTAR M041</OBJECT_NAME><OBJECT_ID>1999-012B</OBJECT_ID><CENTER_NAME>EARTH</CENTER_NAME><REF_FRAME>TEME</REF_FRAME><TIME_SYSTEM>UTC</TIME_SYSTEM><MEAN_ELEMENT_THEORY>SGP4</MEAN_ELEMENT_THEORY></metadata><data><meanElements><EPOCH>2025-02-26T21:05:30.952608</EPOCH><MEAN_MOTION>11.96669969</MEAN_MOTION><ECCENTRICITY>.0002063</ECCENTRICITY><INCLINATION>52.0012</INCLINATION><RA_OF_ASC_NODE>108.8597</RA_OF_ASC_NODE><ARG_OF_PERICENTER>106.2204</ARG_OF_PERICENTER><MEAN_ANOMALY>253.8859</MEAN_ANOMALY></meanElements><tleParameters><EPHEMERIS_TYPE>0</EPHEMERIS_TYPE><CLASSIFICATION_TYPE>U</CLASSIFICATION_TYPE><NORAD_CAT_ID>25650</NORAD_CAT_ID><ELEMENT_SET_NO>999</ELEMENT_SET_NO><REV_AT_EPOCH>16507</REV_AT_EPOCH><BSTAR>-.61917E-3</BSTAR><MEAN_MOTION_DOT>-.133E-5</MEAN_MOTION_DOT><MEAN_MOTION_DDOT>0</MEAN_MOTION_DDOT></tleParameters></data></segment></body></omm>
<omm id="CCSDS_OMM_VERS" version="2.0">
<header><CREATION_DATE/><ORIGINATOR/></header><body><segment><metadata><OBJECT_NAME>GLOBALSTAR M046</OBJECT_NAME><OBJECT_ID>1999-012C</OBJECT_ID><CENTER_NAME>EARTH</CENTER_NAME><REF_FRAME>TEME</REF_FRAME><TIME_SYSTEM>UTC</TIME_SYSTEM><MEAN_ELEMENT_THEORY>SGP4</MEAN_ELEMENT_THEORY></metadata><data><meanElements><EPOCH>2025-02-26T16:03:09.855648</EPOCH><MEAN_MOTION>12.09408511</MEAN_MOTION><ECCENTRICITY>.000249</ECCENTRICITY><INCLINATION>52.0046</INCLINATION><RA_OF_ASC_NODE>185.5085</RA_OF_ASC_NODE><ARG_OF_PERICENTER>53.5499</ARG_OF_PERICENTER><MEAN_ANOMALY>319.6508</MEAN_ANOMALY></meanElements><tleParameters><EPHEMERIS_TYPE>0</EPHEMERIS_TYPE><CLASSIFICATION_TYPE>U</CLASSIFICATION_TYPE><NORAD_CAT_ID>25651</NORAD_CAT_ID><ELEMENT_SET_NO>999</ELEMENT_SET_NO><REV_AT_EPOCH>17029</REV_AT_EPOCH><BSTAR>.27268E-3</BSTAR><MEAN_MOTION_DOT>-.64E-6</MEAN_MOTION_DOT><MEAN_MOTION_DDOT>0</MEAN_MOTION_DDOT></tleParameters></data></segment></body></omm>
<omm id="CCSDS_OMM_VERS" version="2.0">
<header><CREATION_DATE/><ORIGINATOR/></header><body><segment><metadata><OBJECT_NAME>GLOBALSTAR M037</OBJECT_NAME><OBJECT_ID>1999-012D</OBJECT_ID><CENTER_NAME>EARTH</CENTER_NAME><REF_FRAME>TEME</REF_FRAME><TIME_SYSTEM>UTC</TIME_SYSTEM><MEAN_ELEMENT_THEORY>SGP4</MEAN_ELEMENT_THEORY></metadata><data><meanElements><EPOCH>2025-02-26T18:05:00.081888</EPOCH><MEAN_MOTION>12.62437432</MEAN_MOTION><ECCENTRICITY>.0001196</ECCENTRICITY><INCLINATION>51.9997</INCLINATION><RA_OF_ASC_NODE>160.3743</RA_OF_ASC_NODE><ARG_OF_PERICENTER>305.6239</ARG_OF_PERICENTER><MEAN_ANOMALY>219.4928</MEAN_ANOMALY></meanElements><tleParameters><EPHEMERIS_TYPE>0</EPHEMERIS_TYPE><CLASSIFICATION_TYPE>U</CLASSIFICATION_TYPE><NORAD_CAT_ID>25652</NORAD_CAT_ID><ELEMENT_SET_NO>999</ELEMENT_SET_NO><REV_AT_EPOCH>19732</REV_AT_EPOCH><BSTAR>.16285E-3</BSTAR><MEAN_MOTION_DOT>-.75E-6</MEAN_MOTION_DOT><MEAN_MOTION_DDOT>0</MEAN_MOTION_DDOT></tleParameters></data></segment></body></omm>

</ndm>
