GLOBALSTAR M023         
1 25621U 99004A   25057.90782102 -.00000052  00000+0  28742-3 0  9999
2 25621  52.0125  29.2438 0009730 243.7228 142.8025 12.62496236201802
GLOBALSTAR M040         
1 25622U 99004B   25058.08921013 -.00000051  00000+0  29652-3 0  9996
2 25622  51.9933  32.6812 0000943 135.1216 304.3698 12.62003059201651
GLOBALSTAR M036         
1 25623U 99004C   25057.80034458 -.00000130  00000+0 -68801-3 0  9992
2 25623  51.9960 171.2758 0011327 198.4905 327.6817 11.86590910165872
GLOBALSTAR M038         
1 25624U 99004D   25057.88082575 -.00000070  00000+0  20297-3 0  9993
2 25624  51.9992  29.2390 0001754 175.1077 221.9148 12.32521173188771
GLOBALSTAR M022         
1 25649U 99012A   25057.86254976 -.00000060  00000+0  32532-3 0  9997
2 25649  52.0016 230.8147 0001754 331.1623 126.9417 12.02496675163106
GLOBALSTAR M041         
1 25650U 99012B   25057.87883047 -.00000133  00000+0 -61917-3 0  9998
2 25650  52.0012 108.8597 0002063 106.2204 253.8859 11.96669969165075
GLOBALSTAR M046         
1 25651U 99012C   25057.66886407 -.00000064  00000+0  27268-3 0  9992
2 25651  52.0046 185.5085 0002490  53.5499 319.6508 12.09408511170292
GLOBALSTAR M037         
1 25652U 99012D   25057.75347317 -.00000075  00000+0  16285-3 0  9994
2 25652  51.9997 160.3743 0001196 305.6239 219.4928 12.62437432197322
